[{"OBJECT_NAME":"STARLINK-32646","OBJECT_ID":"2024-239G","EPOCH":"2026-03-09T14:25:25.999968","MEAN_MOTION":15.30189569,"ECCENTRICITY":0.0001308,"INCLINATION":53.1574,"RA_OF_ASC_NODE":181.3143,"ARG_OF_PERICENTER":66.7329,"MEAN_ANOMALY":293.3809,"EPHEMERIS_TYPE":0,"CLASSIFICATION_TYPE":"U","NORAD_CAT_ID":62307,"ELEMENT_SET_NO":999,"REV_AT_EPOCH":6955,"BSTAR":0.0014122,"MEAN_MOTION_DOT":0.00041686,"MEAN_MOTION_DDOT":0},{"OBJECT_NAME":"TITAN 4B R\/B","OBJECT_ID":"2005-016B","EPOCH":"2026-03-09T20:27:57.848832","MEAN_MOTION":15.42682045,"ECCENTRICITY":0.00616552,"INCLINATION":56.9964,"RA_OF_ASC_NODE":245.9411,"ARG_OF_PERICENTER":20.2929,"MEAN_ANOMALY":340.0555,"EPHEMERIS_TYPE":0,"CLASSIFICATION_TYPE":"U","NORAD_CAT_ID":28647,"ELEMENT_SET_NO":999,"REV_AT_EPOCH":37707,"BSTAR":0.00046483736,"MEAN_MOTION_DOT":0.0002164,"MEAN_MOTION_DDOT":0}]
